start=new Date('2022-03-30T00:00:00.000Z').valueOf();
sats=[{"ELEMENT_SET_NO":"999","TLE_LINE2":"2 48646  53.0545 110.1031 0001344  73.2779 286.8358 15.06401747 46539","ARG_OF_PERICENTER":"73.2779","SEMIMAJOR_AXIS":"6925.343","PERIAPSIS":"546.277","REF_FRAME":"TEME","REV_AT_EPOCH":"4653","OBJECT_ID":"2021-044J","BSTAR":"0.00002954900000","MEAN_MOTION_DDOT":"0.0000000000000","TLE_LINE1":"1 48646U 21044J   22088.77959043  .00000159  00000-0  29549-4 0  9991","EPOCH":"2022-03-29T18:42:36.613152","MEAN_MOTION_DOT":"0.00000159","COUNTRY_CODE":"US","EPHEMERIS_TYPE":"0","APOAPSIS":"548.139","NORAD_CAT_ID":"48646","TIME_SYSTEM":"UTC","MEAN_ANOMALY":"286.8358","MEAN_ELEMENT_THEORY":"SGP4","FILE":"3379484","OBJECT_TYPE":"PAYLOAD","OBJECT_NAME":"STARLINK-2732","INCLINATION":"53.0545","ECCENTRICITY":"0.00013440","DECAY_DATE":null,"LAUNCH_DATE":"2021-05-26","MEAN_MOTION":"15.06401747","PERIOD":"95.592","CENTER_NAME":"EARTH","CLASSIFICATION_TYPE":"U","RCS_SIZE":"LARGE","SITE":"AFETR","RA_OF_ASC_NODE":"110.1031","GP_ID":"200020654"},{"MEAN_MOTION_DOT":"0.00000912","MEAN_MOTION_DDOT":"0.0000000000000","BSTAR":"0.00008012000000","EPOCH":"2022-03-29T18:37:17.644224","TLE_LINE1":"1 48647U 21044K   22088.77589866  .00000912  00000-0  80120-4 0  9993","REF_FRAME":"TEME","REV_AT_EPOCH":"4653","PERIAPSIS":"546.092","OBJECT_ID":"2021-044K","ARG_OF_PERICENTER":"55.4241","ELEMENT_SET_NO":"999","TLE_LINE2":"2 48647  53.0545 110.1424 0001619  55.4241 304.6900 15.06399986 46530","SEMIMAJOR_AXIS":"6925.349","SITE":"AFETR","RCS_SIZE":"LARGE","CLASSIFICATION_TYPE":"U","CENTER_NAME":"EARTH","RA_OF_ASC_NODE":"110.1424","GP_ID":"200020904","LAUNCH_DATE":"2021-05-26","ECCENTRICITY":"0.00016190","INCLINATION":"53.0545","DECAY_DATE":null,"MEAN_MOTION":"15.06399986","PERIOD":"95.592","MEAN_ELEMENT_THEORY":"SGP4","FILE":"3379484","MEAN_ANOMALY":"304.6900","OBJECT_NAME":"STARLINK-2691","OBJECT_TYPE":"PAYLOAD","EPHEMERIS_TYPE":"0","COUNTRY_CODE":"US","NORAD_CAT_ID":"48647","APOAPSIS":"548.335","TIME_SYSTEM":"UTC"},{"MEAN_ELEMENT_THEORY":"SGP4","FILE":"3379484","MEAN_ANOMALY":"298.6711","OBJECT_NAME":"STARLINK-2521","OBJECT_TYPE":"PAYLOAD","EPHEMERIS_TYPE":"0","COUNTRY_CODE":"US","NORAD_CAT_ID":"48648","APOAPSIS":"548.344","TIME_SYSTEM":"UTC","SITE":"AFETR","RCS_SIZE":"LARGE","CENTER_NAME":"EARTH","CLASSIFICATION_TYPE":"U","RA_OF_ASC_NODE":"110.1426","GP_ID":"200021656","LAUNCH_DATE":"2021-05-26","INCLINATION":"53.0546","ECCENTRICITY":"0.00016210","DECAY_DATE":null,"MEAN_MOTION":"15.06397423","PERIOD":"95.592","REF_FRAME":"TEME","REV_AT_EPOCH":"4653","PERIAPSIS":"546.099","OBJECT_ID":"2021-044L","ARG_OF_PERICENTER":"61.4441","ELEMENT_SET_NO":"999","TLE_LINE2":"2 48648  53.0546 110.1426 0001621  61.4441 298.6711 15.06397423 46532","SEMIMAJOR_AXIS":"6925.356","MEAN_MOTION_DOT":"-0.00000094","MEAN_MOTION_DDOT":"0.0000000000000","BSTAR":"0.00001262500000","EPOCH":"2022-03-29T18:35:56.382432","TLE_LINE1":"1 48648U 21044L   22088.77495813 -.00000094  00000-0  12625-4 0  9999"},{"FILE":"3379484","MEAN_ELEMENT_THEORY":"SGP4","MEAN_ANOMALY":"310.1873","OBJECT_NAME":"STARLINK-2673","OBJECT_TYPE":"PAYLOAD","EPHEMERIS_TYPE":"0","COUNTRY_CODE":"US","TIME_SYSTEM":"UTC","NORAD_CAT_ID":"48649","APOAPSIS":"548.575","RCS_SIZE":"LARGE","SITE":"AFETR","CENTER_NAME":"EARTH","CLASSIFICATION_TYPE":"U","GP_ID":"200021904","RA_OF_ASC_NODE":"110.1411","LAUNCH_DATE":"2021-05-26","DECAY_DATE":null,"ECCENTRICITY":"0.00019670","INCLINATION":"53.0543","PERIOD":"95.592","MEAN_MOTION":"15.06400243","REV_AT_EPOCH":"4652","REF_FRAME":"TEME","PERIAPSIS":"545.851","OBJECT_ID":"2021-044M","ARG_OF_PERICENTER":"49.9289","TLE_LINE2":"2 48649  53.0543 110.1411 0001967  49.9289 310.1873 15.06400243 46521","ELEMENT_SET_NO":"999","SEMIMAJOR_AXIS":"6925.348","MEAN_MOTION_DOT":"0.00001254","MEAN_MOTION_DDOT":"0.0000000000000","BSTAR":"0.00010310000000","EPOCH":"2022-03-29T18:31:59.263680","TLE_LINE1":"1 48649U 21044M   22088.77221370  .00001254  00000-0  10310-3 0  9991"},{"BSTAR":"0.00019895000000","MEAN_MOTION_DDOT":"0.0000000000000","TLE_LINE1":"1 48650U 21044N   22088.76853268  .00002683  00000-0  19895-3 0  9993","EPOCH":"2022-03-29T18:26:41.223552","MEAN_MOTION_DOT":"0.00002683","ELEMENT_SET_NO":"999","TLE_LINE2":"2 48650  53.0552 110.1694 0001499  75.9329 284.1827 15.06394880 46528","ARG_OF_PERICENTER":"75.9329","SEMIMAJOR_AXIS":"6925.364","PERIAPSIS":"546.191","REF_FRAME":"TEME","REV_AT_EPOCH":"4652","OBJECT_ID":"2021-044N","ECCENTRICITY":"0.00014990","INCLINATION":"53.0552","DECAY_DATE":null,"LAUNCH_DATE":"2021-05-26","MEAN_MOTION":"15.06394880","PERIOD":"95.592","CLASSIFICATION_TYPE":"U","CENTER_NAME":"EARTH","SITE":"AFETR","RCS_SIZE":"LARGE","RA_OF_ASC_NODE":"110.1694","GP_ID":"200021154","COUNTRY_CODE":"US","EPHEMERIS_TYPE":"0","NORAD_CAT_ID":"48650","APOAPSIS":"548.267","TIME_SYSTEM":"UTC","MEAN_ANOMALY":"284.1827","MEAN_ELEMENT_THEORY":"SGP4","FILE":"3379484","OBJECT_TYPE":"PAYLOAD","OBJECT_NAME":"STARLINK-2672"},{"COUNTRY_CODE":"US","EPHEMERIS_TYPE":"0","APOAPSIS":"548.309","NORAD_CAT_ID":"48651","TIME_SYSTEM":"UTC","MEAN_ANOMALY":"298.5856","MEAN_ELEMENT_THEORY":"SGP4","FILE":"3379484","OBJECT_TYPE":"PAYLOAD","OBJECT_NAME":"STARLINK-2731","ECCENTRICITY":"0.00015840","INCLINATION":"53.0560","DECAY_DATE":null,"LAUNCH_DATE":"2021-05-26","MEAN_MOTION":"15.06400364","PERIOD":"95.592","CENTER_NAME":"EARTH","CLASSIFICATION_TYPE":"U","SITE":"AFETR","RCS_SIZE":"LARGE","RA_OF_ASC_NODE":"110.1857","GP_ID":"200021404","ELEMENT_SET_NO":"999","TLE_LINE2":"2 48651  53.0560 110.1857 0001584  61.5292 298.5856 15.06400364 46520","ARG_OF_PERICENTER":"61.5292","SEMIMAJOR_AXIS":"6925.347","PERIAPSIS":"546.115","REF_FRAME":"TEME","REV_AT_EPOCH":"4652","OBJECT_ID":"2021-044P","MEAN_MOTION_DDOT":"0.0000000000000","BSTAR":"0.00003405700000","TLE_LINE1":"1 48651U 21044P   22088.76483988  .00000226  00000-0  34057-4 0  9991","EPOCH":"2022-03-29T18:21:22.165632","MEAN_MOTION_DOT":"0.00000226"},{"BSTAR":"0.00000677010000","MEAN_MOTION_DDOT":"0.0000000000000","EPOCH":"2022-03-29T18:16:04.085760","TLE_LINE1":"1 48652U 21044Q   22088.76115840 -.00000181  00000-0  67701-5 0  9995","MEAN_MOTION_DOT":"-0.00000181","ARG_OF_PERICENTER":"66.3337","ELEMENT_SET_NO":"999","TLE_LINE2":"2 48652  53.0543 110.2001 0001684  66.3337 293.7828 15.06397011 46528","SEMIMAJOR_AXIS":"6925.358","REF_FRAME":"TEME","REV_AT_EPOCH":"4652","PERIAPSIS":"546.056","OBJECT_ID":"2021-044Q","LAUNCH_DATE":"2021-05-26","ECCENTRICITY":"0.00016840","INCLINATION":"53.0543","DECAY_DATE":null,"MEAN_MOTION":"15.06397011","PERIOD":"95.592","RCS_SIZE":"LARGE","SITE":"AFETR","CENTER_NAME":"EARTH","CLASSIFICATION_TYPE":"U","RA_OF_ASC_NODE":"110.2001","GP_ID":"200022156","EPHEMERIS_TYPE":"0","COUNTRY_CODE":"US","NORAD_CAT_ID":"48652","APOAPSIS":"548.389","TIME_SYSTEM":"UTC","MEAN_ELEMENT_THEORY":"SGP4","FILE":"3379484","MEAN_ANOMALY":"293.7828","OBJECT_NAME":"STARLINK-2727","OBJECT_TYPE":"PAYLOAD"},{"SEMIMAJOR_AXIS":"6925.353","ELEMENT_SET_NO":"999","TLE_LINE2":"2 48653  53.0540 110.2139 0001691  58.3399 301.7755 15.06398418 46526","ARG_OF_PERICENTER":"58.3399","OBJECT_ID":"2021-044R","PERIAPSIS":"546.047","REF_FRAME":"TEME","REV_AT_EPOCH":"4652","TLE_LINE1":"1 48653U 21044R   22088.75747043  .00000063  00000-0  23134-4 0  9990","EPOCH":"2022-03-29T18:10:45.445152","BSTAR":"0.00002313400000","MEAN_MOTION_DDOT":"0.0000000000000","MEAN_MOTION_DOT":"0.00000063","APOAPSIS":"548.389","NORAD_CAT_ID":"48653","TIME_SYSTEM":"UTC","COUNTRY_CODE":"US","EPHEMERIS_TYPE":"0","OBJECT_TYPE":"PAYLOAD","OBJECT_NAME":"STARLINK-2720","MEAN_ANOMALY":"301.7755","MEAN_ELEMENT_THEORY":"SGP4","FILE":"3379484","MEAN_MOTION":"15.06398418","PERIOD":"95.592","INCLINATION":"53.0540","ECCENTRICITY":"0.00016910","DECAY_DATE":null,"LAUNCH_DATE":"2021-05-26","RA_OF_ASC_NODE":"110.2139","GP_ID":"200022405","CLASSIFICATION_TYPE":"U","CENTER_NAME":"EARTH","RCS_SIZE":"LARGE","SITE":"AFETR"},{"EPHEMERIS_TYPE":"0","COUNTRY_CODE":"US","TIME_SYSTEM":"UTC","NORAD_CAT_ID":"48654","APOAPSIS":"548.257","FILE":"3379484","MEAN_ELEMENT_THEORY":"SGP4","MEAN_ANOMALY":"287.7571","OBJECT_NAME":"STARLINK-2651","OBJECT_TYPE":"PAYLOAD","LAUNCH_DATE":"2021-05-26","DECAY_DATE":null,"INCLINATION":"53.0540","ECCENTRICITY":"0.00014620","PERIOD":"95.593","MEAN_MOTION":"15.06389841","RCS_SIZE":"LARGE","SITE":"AFETR","CENTER_NAME":"EARTH","CLASSIFICATION_TYPE":"U","GP_ID":"200020655","RA_OF_ASC_NODE":"110.2332","ARG_OF_PERICENTER":"72.3577","TLE_LINE2":"2 48654  53.0540 110.2332 0001462  72.3577 287.7571 15.06389841 46521","ELEMENT_SET_NO":"999","SEMIMAJOR_AXIS":"6925.380","REV_AT_EPOCH":"4652","REF_FRAME":"TEME","PERIAPSIS":"546.232","OBJECT_ID":"2021-044S","MEAN_MOTION_DDOT":"0.0000000000000","BSTAR":"-0.00010402000000","EPOCH":"2022-03-29T18:05:27.847392","TLE_LINE1":"1 48654U 21044S   22088.75379453 -.00001830  00000-0 -10402-3 0  9995","MEAN_MOTION_DOT":"-0.00001830"},{"EPOCH":"2022-03-29T18:00:08.628768","TLE_LINE1":"1 48655U 21044T   22088.75009987 -.00001723  00000-0 -96827-4 0  9995","MEAN_MOTION_DDOT":"0.0000000000000","BSTAR":"-0.00009682700000","MEAN_MOTION_DOT":"-0.00001723","SEMIMAJOR_AXIS":"6925.361","ARG_OF_PERICENTER":"60.7068","TLE_LINE2":"2 48655  53.0547 110.2590 0001520  60.7068 299.4073 15.06395860 46521","ELEMENT_SET_NO":"999","OBJECT_ID":"2021-044T","REV_AT_EPOCH":"4652","REF_FRAME":"TEME","PERIAPSIS":"546.174","PERIOD":"95.592","MEAN_MOTION":"15.06395860","LAUNCH_DATE":"2021-05-26","DECAY_DATE":null,"INCLINATION":"53.0547","ECCENTRICITY":"0.00015200","GP_ID":"200020905","RA_OF_ASC_NODE":"110.2590","SITE":"AFETR","RCS_SIZE":"LARGE","CLASSIFICATION_TYPE":"U","CENTER_NAME":"EARTH","TIME_SYSTEM":"UTC","NORAD_CAT_ID":"48655","APOAPSIS":"548.279","EPHEMERIS_TYPE":"0","COUNTRY_CODE":"US","OBJECT_NAME":"STARLINK-2657","OBJECT_TYPE":"PAYLOAD","FILE":"3379484","MEAN_ELEMENT_THEORY":"SGP4","MEAN_ANOMALY":"299.4073"}];
